OBJECT_NAME,OBJECT_ID,EPOCH,MEAN_MOTION,ECCENTRICITY,INCLINATION,RA_OF_ASC_NODE,ARG_OF_PERICENTER,MEAN_ANOMALY,EPHEMERIS_TYPE,CLASSIFICATION_TYPE,NORAD_CAT_ID,ELEMENT_SET_NO,REV_AT_EPOCH,BSTAR,MEAN_MOTION_DOT,MEAN_MOTION_DDOT
KUZGTU 1 (RS47S),2023-091AV,2026-07-21T05:36:40.580064,15.30552547,.00094575,97.5041,267.0744,343.6335,16.4599,0,U,57217,999,16958,.28873565E-3,.8462E-4,0
SONATE-2,2024-043Q,2026-07-20T22:37:37.167456,15.61151934,.00065635,97.5562,354.4821,88.1508,272.0500,0,U,59112,999,13315,.394398E-3,.33286E-3,0
MESAT1,2024-125G,2026-07-21T02:52:06.968640,15.66989596,.00106531,97.2244,60.4640,94.3832,265.8646,0,U,60209,999,11487,.52761788E-3,.56328E-3,0
OOV-CUBE (TUBSAT-30),2024-128F,2026-07-21T06:07:23.126592,15.02890258,.00403213,61.9942,106.7689,141.3942,219.0045,0,U,60240,999,11123,.11387515E-3,.1346E-4,0
COLIBRI-S (RS67S),2024-199M,2026-07-21T05:57:32.598144,15.49022059,.00095516,97.2940,76.4371,142.4954,217.6965,0,U,61746,999,14268,.33886454E-3,.18306E-3,0
HORS 3 (RS81S),2024-199U,2026-07-21T05:37:59.810592,15.57212640,.0007804,97.2923,78.8028,138.0867,222.0987,0,U,61753,999,14285,.43222706E-3,.31449E-3,0
HORS 4 (RS82S),2024-199V,2026-07-21T06:35:58.805088,15.62838618,.00074883,97.2863,80.2878,131.4750,228.7152,0,U,61754,999,14296,.52592597E-3,.47516E-3,0
SIT-2086,2024-199AF,2026-07-21T06:06:14.721984,15.55326598,.00086103,97.2882,79.1808,127.1665,233.0377,0,U,61764,999,13972,.4826199E-3,.32778E-3,0
HYPERVIEW 1G (RS66S),2024-199AP,2026-07-21T01:04:04.673856,15.87478344,.00081676,97.2789,83.7430,138.5493,221.6400,0,U,61772,999,14002,.92524332E-3,.250081E-2,0
ALTAIR (RS65S),2024-199AW,2026-07-21T05:15:56.326752,15.37585555,.00127183,97.2986,71.3519,174.7110,185.4272,0,U,61779,999,14234,.20819043E-3,.7616E-4,0
ASRTU-1 (AO-123),2024-199AY,2026-07-21T05:43:38.815680,15.36108717,.00136549,97.2957,70.6051,178.5089,181.6199,0,U,61781,999,13915,.1634907E-3,.5686E-4,0
SAMSAT-IONOSPHERE (RS75S),2024-199BB,2026-07-21T06:25:23.444544,15.60535517,.00098379,97.2885,79.0225,141.4353,218.7609,0,U,61784,999,14287,.53633772E-3,.44368E-3,0
RTU MIREA 1 (RS51S),2024-199BC,2026-07-21T06:31:13.176192,15.64825248,.00098349,97.2871,80.0544,137.1824,223.0203,0,U,61785,999,13979,.59590906E-3,.58353E-3,0
TEVEL2-4,2025-052D,2026-07-21T03:23:18.339072,15.35700911,.00030127,97.3852,98.6089,40.1902,319.9564,0,U,63213,999,7532,.41714681E-3,.14414E-3,0
TEVEL2-5,2025-052E,2026-07-21T03:58:35.141664,15.35512263,.00030159,97.3850,98.5711,42.3199,317.8277,0,U,63214,999,7532,.40482525E-3,.13901E-3,0
TEVEL2-6,2025-052F,2026-07-20T23:35:56.384736,15.35470217,.00031162,97.3855,98.3732,44.6176,315.5318,0,U,63215,999,7529,.40615668E-3,.13929E-3,0
TEVEL2-1,2025-052H,2026-07-20T23:01:26.909472,15.34894951,.00037459,97.3828,97.9321,47.7905,312.3656,0,U,63217,999,7527,.37939109E-3,.12768E-3,0
TEVEL2-3,2025-052J,2026-07-21T03:33:27.389088,15.34965852,.00035446,97.3837,98.1475,49.1326,311.0224,0,U,63218,999,7530,.40702792E-3,.13736E-3,0
TEVEL2-2,2025-052K,2026-07-20T23:01:34.302720,15.34907749,.00038298,97.3828,97.9353,47.8008,312.3560,0,U,63219,999,7527,.38821513E-3,.13073E-3,0
OTP-2,2025-052AB,2026-07-21T04:02:16.566720,15.24387598,.00078477,97.3823,94.0934,54.6944,305.5027,0,U,63235,999,7504,.2383353E-3,.5773E-4,0
TEVEL2-9,2025-052AD,2026-07-20T06:19:12.067968,15.32827728,.00072091,97.3892,96.5399,42.4598,317.7200,0,U,63237,999,7509,.31277913E-3,.9848E-4,0
TEVEL2-7,2025-052AE,2026-07-21T03:49:57.011232,15.32531062,.00072173,97.3894,97.3362,40.1547,320.0227,0,U,63238,999,7522,.38802823E-3,.12126E-3,0
TEVEL2-8,2025-052AF,2026-07-21T04:02:18.216096,15.32516741,.00072622,97.3894,97.3210,40.9817,319.1970,0,U,63239,999,7522,.39070312E-3,.12205E-3,0
INNOSAT 16 (RS92S7),2025-155C,2026-07-21T05:44:44.033856,15.25780182,.00123032,97.4588,169.2713,70.3607,289.8957,0,U,64878,999,8586,.17875366E-3,.4501E-4,0
GEOSCAN 6 (RS92S6),2025-155D,2026-07-21T05:53:34.992096,15.30729713,.00096722,97.4578,170.9484,65.1904,295.0342,0,U,64879,999,8597,.27029279E-3,.7961E-4,0
GEOSCAN 1 (RS92S1),2025-155E,2026-07-21T05:37:00.018336,15.31383107,.00096126,97.4575,171.1159,65.4130,294.8111,0,U,64880,999,8598,.2805869E-3,.8438E-4,0
239ALFEROV (RS61S),2025-155F,2026-07-21T05:13:48.554112,15.33778544,.00093307,97.4574,171.7807,65.5357,294.6858,0,U,64881,999,8602,.34405961E-3,.11178E-3,0
GEOSCAN 2 (RS92S2),2025-155Q,2026-07-21T05:19:30.967680,15.31640481,.00086607,97.4574,171.2693,55.7126,304.4934,0,U,64890,999,8599,.27912479E-3,.8459E-4,0
GEOSCAN 5 (RS92S5),2025-155R,2026-07-21T06:21:59.961312,15.34082972,.0008383,97.4566,171.9787,70.5738,289.6410,0,U,64891,999,8604,.35785951E-3,.1174E-3,0
GEOSCAN 4 (RS92S4),2025-155S,2026-07-21T05:54:03.237120,15.34253880,.00082818,97.4571,172.0179,70.9771,289.2368,0,U,64892,999,8604,.34982586E-3,.11536E-3,0
