KUZGTU 1 (RS47S)        
1 57217U 23091AV  26202.23380301  .00008462  00000+0  28874-3 0  9990
2 57217  97.5041 267.0744 0009457 343.6335  16.4599 15.30552547169582
SONATE-2                
1 59112U 24043Q   26201.94279129  .00033286  00000+0  39440-3 0  9999
2 59112  97.5562 354.4821 0006563  88.1508 272.0500 15.61151934133156
MESAT1                  
1 60209U 24125G   26202.11952510  .00056328  00000+0  52762-3 0  9995
2 60209  97.2244  60.4640 0010653  94.3832 265.8646 15.66989596114873
OOV-CUBE (TUBSAT-30)    
1 60240U 24128F   26202.25512878  .00001346  00000+0  11388-3 0  9996
2 60240  61.9942 106.7689 0040321 141.3942 219.0045 15.02890258111235
COLIBRI-S (RS67S)       
1 61746U 24199M   26202.24829396  .00018306  00000+0  33886-3 0  9992
2 61746  97.2940  76.4371 0009551 142.4954 217.6965 15.49022059142688
HORS 3 (RS81S)          
1 61753U 24199U   26202.23472003  .00031449  00000+0  43223-3 0  9997
2 61753  97.2923  78.8028 0007804 138.0867 222.0987 15.57212640142854
HORS 4 (RS82S)          
1 61754U 24199V   26202.27498617  .00047516  00000+0  52593-3 0  9993
2 61754  97.2863  80.2878 0007488 131.4750 228.7152 15.62838618142968
SIT-2086                
1 61764U 24199AF  26202.25433706  .00032778  00000+0  48262-3 0  9992
2 61764  97.2882  79.1808 0008610 127.1665 233.0377 15.55326598139724
HYPERVIEW 1G (RS66S)    
1 61772U 24199AP  26202.04449854  .00250081  00000+0  92524-3 0  9998
2 61772  97.2789  83.7430 0008167 138.5493 221.6400 15.87478344140020
ALTAIR (RS65S)          
1 61779U 24199AW  26202.21940193  .00007616  00000+0  20819-3 0  9998
2 61779  97.2986  71.3519 0012718 174.7110 185.4272 15.37585555142341
ASRTU-1 (AO-123)        
1 61781U 24199AY  26202.23864370  .00005686  00000+0  16349-3 0  9993
2 61781  97.2957  70.6051 0013654 178.5089 181.6199 15.36108717139153
SAMSAT-IONOSPHERE (RS7*)
1 61784U 24199BB  26202.26763246  .00044368  00000+0  53634-3 0  9997
2 61784  97.2885  79.0225 0009837 141.4353 218.7609 15.60535517142873
RTU MIREA 1 (RS51S)     
1 61785U 24199BC  26202.27168028  .00058353  00000+0  59591-3 0  9993
2 61785  97.2871  80.0544 0009834 137.1824 223.0203 15.64825248139790
TEVEL2-4                
1 63213U 25052D   26202.14118448  .00014414  00000+0  41715-3 0  9996
2 63213  97.3852  98.6089 0003012  40.1902 319.9564 15.35700911 75329
TEVEL2-5                
1 63214U 25052E   26202.16568451  .00013901  00000+0  40483-3 0  9993
2 63214  97.3850  98.5711 0003015  42.3199 317.8277 15.35512263 75323
TEVEL2-6                
1 63215U 25052F   26201.98329149  .00013929  00000+0  40616-3 0  9990
2 63215  97.3855  98.3732 0003116  44.6176 315.5318 15.35470217 75291
TEVEL2-1                
1 63217U 25052H   26201.95933923  .00012768  00000+0  37939-3 0  9994
2 63217  97.3828  97.9321 0003745  47.7905 312.3656 15.34894951 75276
TEVEL2-3                
1 63218U 25052J   26202.14823367  .00013736  00000+0  40703-3 0  9996
2 63218  97.3837  98.1475 0003544  49.1326 311.0224 15.34965852 75300
TEVEL2-2                
1 63219U 25052K   26201.95942480  .00013073  00000+0  38822-3 0  9996
2 63219  97.3828  97.9353 0003829  47.8008 312.3560 15.34907749 75275
OTP-2                   
1 63235U 25052AB  26202.16824730  .00005773  00000+0  23834-3 0  9990
2 63235  97.3823  94.0934 0007847  54.6944 305.5027 15.24387598 75040
TEVEL2-9                
1 63237U 25052AD  26201.26333412  .00009848  00000+0  31278-3 0  9992
2 63237  97.3892  96.5399 0007209  42.4598 317.7200 15.32827728 75098
TEVEL2-7                
1 63238U 25052AE  26202.15968763  .00012126  00000+0  38803-3 0  9999
2 63238  97.3894  97.3362 0007217  40.1547 320.0227 15.32531062 75222
TEVEL2-8                
1 63239U 25052AF  26202.16826639  .00012205  00000+0  39070-3 0  9991
2 63239  97.3894  97.3210 0007262  40.9817 319.1970 15.32516741 75224
INNOSAT 16 (RS92S7)     
1 64878U 25155C   26202.23939854  .00004501  00000+0  17875-3 0  9996
2 64878  97.4588 169.2713 0012303  70.3607 289.8957 15.25780182 85861
GEOSCAN 6 (RS92S6)      
1 64879U 25155D   26202.24554389  .00007961  00000+0  27029-3 0  9999
2 64879  97.4578 170.9484 0009672  65.1904 295.0342 15.30729713 85970
GEOSCAN 1 (RS92S1)      
1 64880U 25155E   26202.23402799  .00008438  00000+0  28059-3 0  9991
2 64880  97.4575 171.1159 0009612  65.4130 294.8111 15.31383107 85985
239ALFEROV (RS61S)      
1 64881U 25155F   26202.21792308  .00011178  00000+0  34406-3 0  9996
2 64881  97.4574 171.7807 0009330  65.5357 294.6858 15.33778544 86027
GEOSCAN 2 (RS92S2)      
1 64890U 25155Q   26202.22188620  .00008459  00000+0  27912-3 0  9995
2 64890  97.4574 171.2693 0008660  55.7126 304.4934 15.31640481 85991
GEOSCAN 5 (RS92S5)      
1 64891U 25155R   26202.26527733  .00011740  00000+0  35786-3 0  9997
2 64891  97.4566 171.9787 0008383  70.5738 289.6410 15.34082972 86048
GEOSCAN 4 (RS92S4)      
1 64892U 25155S   26202.24587080  .00011536  00000+0  34983-3 0  9998
2 64892  97.4571 172.0179 0008281  70.9771 289.2368 15.34253880 86046
